NORAD_CAT_ID,OBJECT_NAME,OBJECT_TYPE,EPOCH,MEAN_MOTION,ECCENTRICITY,INCLINATION,RA_OF_ASC_NODE,ARG_OF_PERICENTER,MEAN_ANOMALY,BSTAR,MEAN_MOTION_DOT,MEAN_MOTION_DDOT,TLE_LINE0,TLE_LINE1,TLE_LINE2,SEMIMAJOR_AXIS,PERIOD,APOGEE,PERIGEE,DECAYED
50206.0,STARLINK-3258,PAYLOAD,2023-05-08 01:49:23,15.08838635,9.67e-05,53.2141,212.6596,92.7904,267.3199,9.1838e-05,1.174e-05,0.0,0 STARLINK-3258,1 50206U 21125BC  23128.07596382  .00001174  00000-0  91838-4 0  9996,2 50206  53.2141 212.6596 0000967  92.7904 267.3199 15.08838635 78161,6917.885,95.438,540.419,539.081,0.0
50206.0,STARLINK-3258,PAYLOAD,2023-05-08 12:57:05,15.08841339,9.46e-05,53.216,210.577,91.6997,268.4104,-1.466e-06,-3.11e-06,0.0,0 STARLINK-3258,1 50206U 21125BC  23128.53964709 -.00000311  00000-0 -14660-5 0  9992,2 50206  53.2160 210.5770 0000946  91.6997 268.4104 15.08841339 78231,6917.876,95.437,540.396,539.087,0.0
50206.0,STARLINK-3258,PAYLOAD,2023-05-09 12:47:51,15.08849824,8.44e-05,53.2161,206.1165,90.7936,269.3153,8.1878e-05,1.016e-05,0.0,0 STARLINK-3258,1 50206U 21125BC  23129.53324017  .00001016  00000-0  81878-4 0  9990,2 50206  53.2161 206.1165 0000844  90.7936 269.3153 15.08849824 78388,6917.85,95.437,540.299,539.131,0.0
50206.0,STARLINK-3258,PAYLOAD,2023-05-10 12:38:39,15.08835343,0.0001026,53.2163,201.6564,74.9242,285.1864,0.00010113,1.322e-05,0.0,0 STARLINK-3258,1 50206U 21125BC  23130.52685155  .00001322  00000-0  10113-3 0  9997,2 50206  53.2163 201.6564 0001026  74.9242 285.1864 15.08835343 78533,6917.895,95.438,540.469,539.05,0.0
50206.0,STARLINK-3258,PAYLOAD,2023-05-11 10:54:04,15.08832934,0.0001033,53.2147,197.4931,85.7231,274.3879,-1.0836e-05,-4.6e-06,0.0,0 STARLINK-3258,1 50206U 21125BC  23131.45421301 -.00000460  00000-0 -10836-4 0  9998,2 50206  53.2147 197.4931 0001033  85.7231 274.3879 15.08832934 78675,6917.902,95.438,540.482,539.052,0.0
50206.0,STARLINK-3258,PAYLOAD,2023-05-11 23:37:09,15.08837552,9.73e-05,53.2144,195.1121,94.5206,265.5897,9.7997e-05,1.272e-05,0.0,0 STARLINK-3258,1 50206U 21125BC  23131.98413201  .00001272  00000-0  97997-4 0  9999,2 50206  53.2144 195.1121 0000973  94.5206 265.5897 15.08837552 78752,6917.888,95.438,540.426,539.08,0.0
50206.0,STARLINK-3258,PAYLOAD,2023-05-12 09:09:27,15.08841005,0.0001058,53.2147,193.3295,83.8052,276.306,0.00019002,2.738e-05,0.0,0 STARLINK-3258,1 50206U 21125BC  23132.38157262  .00002738  00000-0  19002-3 0  9994,2 50206  53.2147 193.3295 0001058  83.8052 276.3060 15.08841005 78819,6917.877,95.437,540.474,539.01,0.0
50206.0,STARLINK-3258,PAYLOAD,2023-05-13 09:00:14,15.0884533,0.000102,53.2148,188.8687,90.0748,270.0361,0.00030058,4.5e-05,0.0,0 STARLINK-3258,1 50206U 21125BC  23133.37517025  .00004500  00000-0  30058-3 0  9994,2 50206  53.2148 188.8687 0001020  90.0748 270.0361 15.08845330 78961,6917.864,95.437,540.435,539.023,0.0
50206.0,STARLINK-3258,PAYLOAD,2023-05-13 20:07:56,15.0884615,0.0001124,53.2149,186.788,84.2794,275.8326,0.00015632,2.201e-05,0.0,0 STARLINK-3258,1 50206U 21125BC  23133.83884857  .00002201  00000-0  15632-3 0  9992,2 50206  53.2149 186.7880 0001124  84.2794 275.8326 15.08846150 79039,6917.862,95.437,540.504,538.949,0.0
50206.0,STARLINK-3258,PAYLOAD,2023-05-14 07:15:38,15.08836198,0.0001659,53.2175,184.7124,122.3016,237.8137,-4.0814e-05,-9.37e-06,0.0,0 STARLINK-3258,1 50206U 21125BC  23134.30253253 -.00000937  00000-0 -40814-4 0  9992,2 50206  53.2175 184.7124 0001659 122.3016 237.8137 15.08836198 79108,6917.892,95.438,540.905,538.609,0.0
50206.0,STARLINK-3258,PAYLOAD,2023-05-14 10:26:25,15.08834814,0.0001553,53.2169,184.1171,117.3397,242.7754,-1.8399e-05,-5.81e-06,0.0,0 STARLINK-3258,1 50206U 21125BC  23134.43501450 -.00000581  00000-0 -18399-4 0  9999,2 50206  53.2169 184.1171 0001553 117.3397 242.7754 15.08834814 79121,6917.896,95.438,540.836,538.687,0.0
50206.0,STARLINK-3258,PAYLOAD,2023-05-14 19:58:44,15.08832983,0.0001524,53.2159,182.335,124.2785,235.8352,-7.5191e-05,-1.484e-05,0.0,0 STARLINK-3258,1 50206U 21125BC  23134.83245585 -.00001484  00000-0 -75191-4 0  9993,2 50206  53.2159 182.3350 0001524 124.2785 235.8352 15.08832983 79183,6917.902,95.438,540.821,538.713,0.0
50206.0,STARLINK-3258,PAYLOAD,2023-05-15 10:17:12,15.08841414,0.0001276,53.2161,179.6521,100.6868,259.4267,5.0618e-05,5.18e-06,0.0,0 STARLINK-3258,1 50206U 21125BC  23135.42861365  .00000518  00000-0  50618-4 0  9991,2 50206  53.2161 179.6521 0001276 100.6868 259.4267 15.08841414 79275,6917.876,95.437,540.624,538.858,0.0
50206.0,STARLINK-3258,PAYLOAD,2023-05-15 19:49:31,15.08838624,0.0001212,53.2157,177.8675,114.2843,245.8276,3.8043e-05,3.18e-06,0.0,0 STARLINK-3258,1 50206U 21125BC  23135.82605516  .00000318  00000-0  38043-4 0  9995,2 50206  53.2157 177.8675 0001212 114.2843 245.8276 15.08838624 79339,6917.885,95.438,540.588,538.911,0.0
50206.0,STARLINK-3258,PAYLOAD,2023-05-16 06:57:13,15.08833163,0.0001212,53.2157,175.7858,94.1312,265.9819,0.00012088,1.636e-05,0.0,0 STARLINK-3258,1 50206U 21125BC  23136.28973977  .00001636  00000-0  12088-3 0  9999,2 50206  53.2157 175.7858 0001212  94.1312 265.9819 15.08833163 79403,6917.901,95.438,540.605,538.928,0.0
50206.0,STARLINK-3258,PAYLOAD,2023-05-16 10:07:59,15.08836554,0.0001196,53.2157,175.1909,93.1801,266.9328,0.00010441,1.374e-05,0.0,0 STARLINK-3258,1 50206U 21125BC  23136.42221864  .00001374  00000-0  10441-3 0  9996,2 50206  53.2157 175.1909 0001196  93.1801 266.9328 15.08836554 79422,6917.891,95.438,540.583,538.929,0.0
50206.0,STARLINK-3258,PAYLOAD,2023-05-16 19:40:18,15.08837749,0.0001193,53.2155,173.4065,88.8275,271.2854,0.00010004,1.305e-05,0.0,0 STARLINK-3258,1 50206U 21125BC  23136.81965852  .00001305  00000-0  10004-3 0  9990,2 50206  53.2155 173.4065 0001193  88.8275 271.2854 15.08837749 79483,6917.887,95.438,540.578,538.927,0.0
50206.0,STARLINK-3258,PAYLOAD,2023-05-17 09:58:46,15.08842425,0.00012,53.2156,170.7302,88.3413,271.7716,8.9018e-05,1.129e-05,0.0,0 STARLINK-3258,1 50206U 21125BC  23137.41581567  .00001129  00000-0  89018-4 0  9990,2 50206  53.2156 170.7302 0001200  88.3413 271.7716 15.08842425 79575,6917.873,95.437,540.568,538.908,0.0
50206.0,STARLINK-3258,PAYLOAD,2023-05-17 19:31:05,15.08840712,0.0001222,53.2155,168.9454,87.8959,272.2173,7.1919e-05,8.57e-06,0.0,0 STARLINK-3258,1 50206U 21125BC  23137.81325650  .00000857  00000-0  71919-4 0  9991,2 50206  53.2155 168.9454 0001222  87.8959 272.2173 15.08840712 79631,6917.878,95.438,540.589,538.898,0.0
50206.0,STARLINK-3258,PAYLOAD,2023-05-18 08:14:10,15.08839636,0.0001211,53.2155,166.5666,87.5592,272.5539,6.9409e-05,8.17e-06,0.0,0 STARLINK-3258,1 50206U 21125BC  23138.34317690  .00000817  00000-0  69409-4 0  9992,2 50206  53.2155 166.5666 0001211  87.5592 272.5539 15.08839636 79719,6917.882,95.438,540.584,538.909,0.0
50206.0,STARLINK-3258,PAYLOAD,2023-05-18 19:21:52,15.08838997,0.0001209,53.2156,164.4851,86.7939,273.3191,4.08e-05,3.62e-06,0.0,0 STARLINK-3258,1 50206U 21125BC  23138.80685811  .00000362  00000-0  40800-4 0  9995,2 50206  53.2156 164.4851 0001209  86.7939 273.3191 15.08838997 79785,6917.883,95.438,540.585,538.912,0.0
50206.0,STARLINK-3258,PAYLOAD,2023-05-19 11:15:43,15.08839034,0.000118,53.2155,161.5111,87.5704,272.5423,2.0855e-06,-2.55e-06,0.0,0 STARLINK-3258,1 50206U 21125BC  23139.46925910 -.00000255  00000-0  20855-5 0  9996,2 50206  53.2155 161.5111 0001180  87.5704 272.5423 15.08839034 79881,6917.883,95.438,540.565,538.932,0.0
50206.0,STARLINK-3258,PAYLOAD,2023-05-20 07:55:44,15.08843412,0.0001182,53.2156,157.6459,84.0025,276.1102,8.1711e-05,1.013e-05,0.0,0 STARLINK-3258,1 50206U 21125BC  23140.33037422  .00001013  00000-0  81711-4 0  9995,2 50206  53.2156 157.6459 0001182  84.0025 276.1102 15.08843412 80019,6917.87,95.437,540.553,538.917,0.0
50206.0,STARLINK-3258,PAYLOAD,2023-05-21 07:46:31,15.08843277,0.0001194,53.2156,153.1853,88.3481,271.7648,0.00010988,1.461e-05,0.0,0 STARLINK-3258,1 50206U 21125BC  23141.32397255  .00001461  00000-0  10988-3 0  9992,2 50206  53.2156 153.1853 0001194  88.3481 271.7648 15.08843277 80165,6917.87,95.437,540.561,538.909,0.0
50206.0,STARLINK-3258,PAYLOAD,2023-05-21 17:18:50,15.08837685,0.0001216,53.2155,151.4005,86.2971,273.816,3.6545e-05,2.94e-06,0.0,0 STARLINK-3258,1 50206U 21125BC  23141.72141806  .00000294  00000-0  36545-4 0  9996,2 50206  53.2155 151.4005 0001216  86.2971 273.8160 15.08837685 80225,6917.887,95.438,540.594,538.911,0.0
50206.0,STARLINK-3258,PAYLOAD,2023-05-22 09:12:42,15.08835316,0.0001287,53.216,148.4283,98.2769,261.8369,-2.5288e-05,-6.9e-06,0.0,0 STARLINK-3258,1 50206U 21125BC  23142.38382269 -.00000690  00000-0 -25288-4 0  9993,2 50206  53.2160 148.4283 0001287  98.2769 261.8369 15.08835316 80329,6917.895,95.438,540.65,538.869,0.0
50206.0,STARLINK-3258,PAYLOAD,2023-05-22 17:09:37,15.08836072,0.0001266,53.2161,146.9415,95.7183,264.3953,-1.5826e-05,-5.4e-06,0.0,0 STARLINK-3258,1 50206U 21125BC  23142.71502276 -.00000540  00000-0 -15826-4 0  9993,2 50206  53.2161 146.9415 0001266  95.7183 264.3953 15.08836072 80371,6917.892,95.438,540.633,538.882,0.0
50206.0,STARLINK-3258,PAYLOAD,2023-05-22 23:31:10,15.08837803,0.0001194,53.2156,145.7509,91.0046,269.1083,3.1969e-05,2.21e-06,0.0,0 STARLINK-3258,1 50206U 21125BC  23142.97998024  .00000221  00000-0  31969-4 0  9991,2 50206  53.2156 145.7509 0001194  91.0046 269.1083 15.08837803 80418,6917.887,95.438,540.578,538.926,0.0
50206.0,STARLINK-3258,PAYLOAD,2023-05-23 17:00:24,15.08837235,0.0001191,53.216,142.48,90.0763,270.0365,5.0403e-05,5.14e-06,0.0,0 STARLINK-3258,1 50206U 21125BC  23143.70862132  .00000514  00000-0  50403-4 0  9992,2 50206  53.2160 142.4800 0001191  90.0763 270.0365 15.08837235 80528,6917.889,95.438,540.578,538.93,0.0
50206.0,STARLINK-3258,PAYLOAD,2023-05-24 07:18:53,15.08838098,0.0001157,53.2157,139.8033,88.7229,271.3896,0.00010119,1.323e-05,0.0,0 STARLINK-3258,1 50206U 21125BC  23144.30478130  .00001323  00000-0  10119-3 0  9998,2 50206  53.2157 139.8033 0001157  88.7229 271.3896 15.08838098 80616,6917.886,95.438,540.552,538.951,0.0
